[{"OBJECT_NAME":"EAGLET-I","OBJECT_ID":"2018-099AJ","EPOCH":"2026-03-09T16:28:56.807904","MEAN_MOTION":15.12108145,"ECCENTRICITY":0.00104863,"INCLINATION":97.4369,"RA_OF_ASC_NODE":120.9821,"ARG_OF_PERICENTER":336.8524,"MEAN_ANOMALY":23.2233,"EPHEMERIS_TYPE":0,"CLASSIFICATION_TYPE":"U","NORAD_CAT_ID":43790,"ELEMENT_SET_NO":999,"REV_AT_EPOCH":39729,"BSTAR":0.0003526184,"MEAN_MOTION_DOT":6.017e-5,"MEAN_MOTION_DDOT":0},{"OBJECT_NAME":"STARLINK-4645","OBJECT_ID":"2022-107AV","EPOCH":"2026-03-09T19:58:04.893312","MEAN_MOTION":15.088425,"ECCENTRICITY":0.0001382,"INCLINATION":53.2167,"RA_OF_ASC_NODE":263.572,"ARG_OF_PERICENTER":88.4399,"MEAN_ANOMALY":271.6752,"EPHEMERIS_TYPE":0,"CLASSIFICATION_TYPE":"U","NORAD_CAT_ID":53743,"ELEMENT_SET_NO":999,"REV_AT_EPOCH":19461,"BSTAR":1.2715346e-5,"MEAN_MOTION_DOT":-8.6e-7,"MEAN_MOTION_DDOT":0}]
